{"type": "FeatureCollection", "features": [ {"type": "Feature", "properties": {"norad_id": 30224, "name": "FENGYUN 1C DEB", "group": "fengyun-1c-debris", "lat": -25.775477486371432, "lon": -145.31425094768235, "alt_km": 948.7686721393393, "timestamp": "2025-12-26T07:29:18.730436+00:00", "meta": {"OBJECT_NAME": "FENGYUN 1C DEB", "OBJECT_ID": "1999-025WH", "EPOCH": "2025-12-25T23:56:16.077120", "MEAN_MOTION": 13.89878314, "ECCENTRICITY": 0.01109124, "INCLINATION": 99.4824, "RA_OF_ASC_NODE": 38.9944, "ARG_OF_PERICENTER": 307.5922, "MEAN_ANOMALY": 126.3609, "EPHEMERIS_TYPE": 0, "CLASSIFICATION_TYPE": "U", "NORAD_CAT_ID": 30224, "ELEMENT_SET_NO": 999, "REV_AT_EPOCH": 95925, "BSTAR": 0.00034034465, "MEAN_MOTION_DOT": 3.93e-06, "MEAN_MOTION_DDOT": 0}, "tle": {"line1": "1 30224U 99025WH  25359.99740830  .00000393  00000+0  34034-3 0  9991", "line2": "2 30224  99.4824  38.9944 0110912 307.5922 126.3609 13.89878314959257"}}, "geometry": {"type": "Point", "coordinates": [-145.31425094768235, -25.775477486371432]}}, {"type": "Feature", "properties": {"norad_id": 30225, "name": "FENGYUN 1C DEB", "group": "fengyun-1c-debris", "lat": 7.835303295162109, "lon": -152.1103773087761, "alt_km": 884.0425864408717, "timestamp": "2025-12-26T07:29:18.730446+00:00", "meta": {"OBJECT_NAME": "FENGYUN 1C DEB", "OBJECT_ID": "1999-025WJ", "EPOCH": "2025-12-24T19:53:04.274880", "MEAN_MOTION": 14.15192277, "ECCENTRICITY": 0.01001984, "INCLINATION": 98.6587, "RA_OF_ASC_NODE": 25.2479, "ARG_OF_PERICENTER": 51.6401, "MEAN_ANOMALY": 125.6348, "EPHEMERIS_TYPE": 0, "CLASSIFICATION_TYPE": "U", "NORAD_CAT_ID": 30225, "ELEMENT_SET_NO": 999, "REV_AT_EPOCH": 97707, "BSTAR": 0.0001525867, "MEAN_MOTION_DOT": 2.69e-06, "MEAN_MOTION_DDOT": 0}, "tle": {"line1": "1 30225U 99025WJ  25358.82852170  .00000269  00000+0  15259-3 0  9994", "line2": "2 30225  98.6587  25.2479 0100198  51.6401 125.6348 14.15192277977070"}}, "geometry": {"type": "Point", "coordinates": [-152.1103773087761, 7.835303295162109]}}, {"type": "Feature", "properties": {"norad_id": 30229, "name": "FENGYUN 1C DEB", "group": "fengyun-1c-debris", "lat": 69.17919761461238, "lon": -93.97864395118913, "alt_km": 692.8626663552495, "timestamp": "2025-12-26T07:29:18.730456+00:00", "meta": {"OBJECT_NAME": "FENGYUN 1C DEB", "OBJECT_ID": "1999-025WN", "EPOCH": "2025-12-25T03:10:57.415008", "MEAN_MOTION": 14.607453, "ECCENTRICITY": 0.00368473, "INCLINATION": 99.0609, "RA_OF_ASC_NODE": 59.9203, "ARG_OF_PERICENTER": 2.1668, "MEAN_ANOMALY": 27.6081, "EPHEMERIS_TYPE": 0, "CLASSIFICATION_TYPE": "U", "NORAD_CAT_ID": 30229, "ELEMENT_SET_NO": 999, "REV_AT_EPOCH": 99107, "BSTAR": 0.0018630262, "MEAN_MOTION_DOT": 9.128e-05, "MEAN_MOTION_DDOT": 0}, "tle": {"line1": "1 30229U 99025WN  25359.13260897  .00009128  00000+0  18630-2 0  9990", "line2": "2 30229  99.0609  59.9203 0036847   2.1668  27.6081 14.60745300991070"}}, "geometry": {"type": "Point", "coordinates": [-93.97864395118913, 69.17919761461238]}}, {"type": "Feature", "properties": {"norad_id": 30231, "name": "FENGYUN 1C DEB", "group": "fengyun-1c-debris", "lat": 73.12379314159836, "lon": -104.46034336689053, "alt_km": 882.8548917594744, "timestamp": "2025-12-26T07:29:18.730466+00:00", "meta": {"OBJECT_NAME": "FENGYUN 1C DEB", "OBJECT_ID": "1999-025WQ", "EPOCH": "2025-12-25T14:42:58.460832", "MEAN_MOTION": 14.11670464, "ECCENTRICITY": 0.0127842, "INCLINATION": 98.8038, "RA_OF_ASC_NODE": 44.1339, "ARG_OF_PERICENTER": 352.6585, "MEAN_ANOMALY": 160.8567, "EPHEMERIS_TYPE": 0, "CLASSIFICATION_TYPE": "U", "NORAD_CAT_ID": 30231, "ELEMENT_SET_NO": 999, "REV_AT_EPOCH": 97201, "BSTAR": 0.00048825, "MEAN_MOTION_DOT": 9.15e-06, "MEAN_MOTION_DDOT": 0}, "tle": {"line1": "1 30231U 99025WQ  25359.61317663  .00000915  00000+0  48825-3 0  9995", "line2": "2 30231  98.8038  44.1339 0127842 352.6585 160.8567 14.11670464972015"}}, "geometry": {"type": "Point", "coordinates": [-104.46034336689053, 73.12379314159836]}}, {"type": "Feature", "properties": {"norad_id": 30232, "name": "FENGYUN 1C DEB", "group": "fengyun-1c-debris", "lat": 60.51651646645135, "lon": -174.48243908855557, "alt_km": 713.1151763996158, "timestamp": "2025-12-26T07:29:18.730477+00:00", "meta": {"OBJECT_NAME": "FENGYUN 1C DEB", "OBJECT_ID": "1999-025WR", "EPOCH": "2025-12-25T13:26:49.056000", "MEAN_MOTION": 14.63697869, "ECCENTRICITY": 0.0135161, "INCLINATION": 98.6923, "RA_OF_ASC_NODE": 200.4239, "ARG_OF_PERICENTER": 310.0632, "MEAN_ANOMALY": 111.489, "EPHEMERIS_TYPE": 0, "CLASSIFICATION_TYPE": "U", "NORAD_CAT_ID": 30232, "ELEMENT_SET_NO": 999, "REV_AT_EPOCH": 99939, "BSTAR": 0.00087369, "MEAN_MOTION_DOT": 5.134e-05, "MEAN_MOTION_DDOT": 0}, "tle": {"line1": "1 30232U 99025WR  25359.56029000  .00005134  00000+0  87369-3 0  9999", "line2": "2 30232  98.6923 200.4239 0135161 310.0632 111.4890 14.63697869999393"}}, "geometry": {"type": "Point", "coordinates": [-174.48243908855557, 60.51651646645135]}}, {"type": "Feature", "properties": {"norad_id": 30234, "name": "FENGYUN 1C DEB", "group": "fengyun-1c-debris", "lat": -20.34312134301349, "lon": -172.53825903046143, "alt_km": 887.2110015543867, "timestamp": "2025-12-26T07:29:18.730487+00:00", "meta": {"OBJECT_NAME": "FENGYUN 1C DEB", "OBJECT_ID": "1999-025WT", "EPOCH": "2025-12-25T22:24:25.454016", "MEAN_MOTION": 14.16882078, "ECCENTRICITY": 0.00666274, "INCLINATION": 98.6335, "RA_OF_ASC_NODE": 10.3237, "ARG_OF_PERICENTER": 37.7195, "MEAN_ANOMALY": 33.5222, "EPHEMERIS_TYPE": 0, "CLASSIFICATION_TYPE": "U", "NORAD_CAT_ID": 30234, "ELEMENT_SET_NO": 999, "REV_AT_EPOCH": 97643, "BSTAR": 0.00032843928, "MEAN_MOTION_DOT": 6.31e-06, "MEAN_MOTION_DDOT": 0}, "tle": {"line1": "1 30234U 99025WT  25359.93362794  .00000631  00000+0  32844-3 0  9997", "line2": "2 30234  98.6335  10.3237 0066627  37.7195  33.5222 14.16882078976434"}}, "geometry": {"type": "Point", "coordinates": [-172.53825903046143, -20.34312134301349]}}, {"type": "Feature", "properties": {"norad_id": 30235, "name": "FENGYUN 1C DEB", "group": "fengyun-1c-debris", "lat": 53.946394329169536, "lon": -149.70280665636602, "alt_km": 827.9636362567408, "timestamp": "2025-12-26T07:29:18.730497+00:00", "meta": {"OBJECT_NAME": "FENGYUN 1C DEB", "OBJECT_ID": "1999-025WU", "EPOCH": "2025-12-25T14:27:27.856800", "MEAN_MOTION": 14.08794124, "ECCENTRICITY": 0.0153859, "INCLINATION": 98.7488, "RA_OF_ASC_NODE": 17.3961, "ARG_OF_PERICENTER": 202.0766, "MEAN_ANOMALY": 287.7456, "EPHEMERIS_TYPE": 0, "CLASSIFICATION_TYPE": "U", "NORAD_CAT_ID": 30235, "ELEMENT_SET_NO": 999, "REV_AT_EPOCH": 97074, "BSTAR": 0.00029244, "MEAN_MOTION_DOT": 5.2e-06, "MEAN_MOTION_DDOT": 0}, "tle": {"line1": "1 30235U 99025WU  25359.60240575  .00000520  00000+0  29244-3 0  9991", "line2": "2 30235  98.7488  17.3961 0153859 202.0766 287.7456 14.08794124970746"}}, "geometry": {"type": "Point", "coordinates": [-149.70280665636602, 53.946394329169536]}}, {"type": "Feature", "properties": {"norad_id": 30237, "name": "FENGYUN 1C DEB", "group": "fengyun-1c-debris", "lat": -11.059802253710256, "lon": -78.24431546441326, "alt_km": 755.950777695195, "timestamp": "2025-12-26T07:29:18.730507+00:00", "meta": {"OBJECT_NAME": "FENGYUN 1C DEB", "OBJECT_ID": "1999-025WW", "EPOCH": "2025-12-25T19:30:23.037696", "MEAN_MOTION": 14.41073296, "ECCENTRICITY": 0.00150419, "INCLINATION": 98.8251, "RA_OF_ASC_NODE": 102.9807, "ARG_OF_PERICENTER": 265.0707, "MEAN_ANOMALY": 217.5744, "EPHEMERIS_TYPE": 0, "CLASSIFICATION_TYPE": "U", "NORAD_CAT_ID": 30237, "ELEMENT_SET_NO": 999, "REV_AT_EPOCH": 97886, "BSTAR": 0.0024962756, "MEAN_MOTION_DOT": 8.008e-05, "MEAN_MOTION_DDOT": 0}, "tle": {"line1": "1 30237U 99025WW  25359.81276664  .00008008  00000+0  24963-2 0  9995", "line2": "2 30237  98.8251 102.9807 0015041 265.0707 217.5744 14.41073296978860"}}, "geometry": {"type": "Point", "coordinates": [-78.24431546441326, -11.059802253710256]}}, {"type": "Feature", "properties": {"norad_id": 30239, "name": "FENGYUN 1C DEB", "group": "fengyun-1c-debris", "lat": 28.69829694790196, "lon": 139.00106558766623, "alt_km": 906.6730138169578, "timestamp": "2025-12-26T07:29:18.730517+00:00", "meta": {"OBJECT_NAME": "FENGYUN 1C DEB", "OBJECT_ID": "1999-025WY", "EPOCH": "2025-12-25T08:09:34.826688", "MEAN_MOTION": 11.38313198, "ECCENTRICITY": 0.1353739, "INCLINATION": 99.5606, "RA_OF_ASC_NODE": 143.6441, "ARG_OF_PERICENTER": 7.9122, "MEAN_ANOMALY": 354.1101, "EPHEMERIS_TYPE": 0, "CLASSIFICATION_TYPE": "U", "NORAD_CAT_ID": 30239, "ELEMENT_SET_NO": 999, "REV_AT_EPOCH": 54678, "BSTAR": 0.027272, "MEAN_MOTION_DOT": 9.342e-05, "MEAN_MOTION_DDOT": 0}, "tle": {"line1": "1 30239U 99025WY  25359.33998642  .00009342  00000+0  27272-1 0  9998", "line2": "2 30239  99.5606 143.6441 1353739   7.9122 354.1101 11.38313198546782"}}, "geometry": {"type": "Point", "coordinates": [139.00106558766623, 28.69829694790196]}}, {"type": "Feature", "properties": {"norad_id": 30241, "name": "FENGYUN 1C DEB", "group": "fengyun-1c-debris", "lat": 26.41859552305876, "lon": 128.82236693694895, "alt_km": 757.9765538413258, "timestamp": "2025-12-26T07:29:18.730528+00:00", "meta": {"OBJECT_NAME": "FENGYUN 1C DEB", "OBJECT_ID": "1999-025XA", "EPOCH": "2025-12-25T20:09:23.738112", "MEAN_MOTION": 14.09559236, "ECCENTRICITY": 0.01465017, "INCLINATION": 99.1491, "RA_OF_ASC_NODE": 132.9348, "ARG_OF_PERICENTER": 44.6471, "MEAN_ANOMALY": 108.0727, "EPHEMERIS_TYPE": 0, "CLASSIFICATION_TYPE": "U", "NORAD_CAT_ID": 30241, "ELEMENT_SET_NO": 999, "REV_AT_EPOCH": 97096, "BSTAR": 0.00027273818, "MEAN_MOTION_DOT": 4.82e-06, "MEAN_MOTION_DDOT": 0}, "tle": {"line1": "1 30241U 99025XA  25359.83985808  .00000482  00000+0  27274-3 0  9996", "line2": "2 30241  99.1491 132.9348 0146501  44.6471 108.0727 14.09559236970968"}}, "geometry": {"type": "Point", "coordinates": [128.82236693694895, 26.41859552305876]}}]}